FLOCK 4Y-15             
1 55068U 23001BM  23030.63927278  .00005864  00000+0  32844-3 0  9998
2 55068  97.4983  92.3250 0016927 122.8664 237.4199 15.13676563  4249
FLOCK 4Y-9              
1 55069U 23001BN  23030.63952211  .00005482  00000+0  30767-3 0  9992
2 55069  97.5018  92.3422 0016097 130.2866 229.9775 15.13648060  4243
FLOCK 4Y-26             
1 55070U 23001BP  23030.63928660  .00005766  00000+0  32308-3 0  9993
2 55070  97.4980  92.3239 0016634 121.0725 239.2141 15.13672220  4243
FLOCK 4Y-8              
1 55071U 23001BQ  23030.63990257  .00005835  00000+0  32718-3 0  9997
2 55071  97.4994  92.3274 0016769 124.8552 235.4259 15.13641024  4242
2023-001BR              
1 55072U 23001BR  23030.44086293  .00007714  00000+0  42998-3 0  9992
2 55072  97.5041  92.1534 0016649 125.4474 234.8314 15.13748582  4210
TAUSAT-2                
1 55073U 23001BS  23030.56822038  .00007031  00000+0  38458-3 0  9999
2 55073  97.5015  92.2778 0018443 106.6828 253.6430 15.14430776  4235
FLOCK 4Y-2              
1 55074U 23001BT  23030.57182489  .00005969  00000+0  33342-3 0  9995
2 55074  97.5025  92.2817 0016552 129.2953 230.9749 15.13769378  4233
FLOCK 4Y-36             
1 55075U 23001BU  23030.63822202  .00006027  00000+0  33686-3 0  9994
2 55075  97.5003  92.3329 0016796 127.1173 233.1596 15.13746172  4243
YAM-5                   
1 55076U 23001BV  23030.57941278  .00003420  00000+0  19570-3 0  9993
2 55076  97.5006  92.2594 0016186 125.3492 234.9255 15.13207911  4230
FLOCK 4Y-21             
1 55077U 23001BW  23030.63790135  .00005794  00000+0  32383-3 0  9998
2 55077  97.5031  92.3476 0016914 127.2306 233.0471 15.13758811  4244
FLOCK 4Y-31             
1 55078U 23001BX  23030.50558667  .00005689  00000+0  31806-3 0  9999
2 55078  97.4988  92.1993 0017059 122.1467 238.1422 15.13754282  4228
FLOCK 4Y-13             
1 55079U 23001BY  23030.57190489  .00005513  00000+0  30852-3 0  9997
2 55079  97.5021  92.2779 0017181 126.5587 233.7228 15.13731642  4239
FLOCK 4Y-23             
1 55080U 23001BZ  23030.96787443  .00005531  00000+0  30900-3 0  9998
2 55080  97.4996  92.6577 0017399 122.9738 237.3169 15.13788281  4291
2023-001CA              
1 55081U 23001CA  23030.57211038  .00005045  00000+0  28289-3 0  9995
2 55081  97.5034  92.2824 0017453 123.7840 236.5057 15.13699247  4235
FLOCK 4Y-34             
1 55082U 23001CB  23030.63735179  .00005667  00000+0  31651-3 0  9997
2 55082  97.5004  92.3365 0017210 122.7213 237.5680 15.13788286  4244
FLOCK 4Y-27             
1 55083U 23001CC  23030.57118261  .00005824  00000+0  32509-3 0  9996
2 55083  97.4998  92.2682 0017406 124.4224 235.8656 15.13793814  4231
2023-001CD              
1 55084U 23001CD  23030.57038172  .00005274  00000+0  29459-3 0  9998
2 55084  97.4981  92.2648 0017055 117.8282 242.4680 15.13821518  4230
2023-001CE              
1 55085U 23001CE  23030.56825151  .00008067  00000+0  44536-3 0  9995
2 55085  97.4990  92.2698 0017295 120.5500 239.7440 15.14067448  4234
2023-001CF              
1 55086U 23001CF  23030.56790992  .00007928  00000+0  43752-3 0  9994
2 55086  97.5020  92.2818 0017312 120.0699 240.2252 15.14087231  4238
SPACEBEE-167            
1 55087U 23001CG  23030.56670340  .00009358  00000+0  51381-3 0  9995
2 55087  97.5000  92.2760 0017195 119.5379 240.7570 15.14218673  4234
LEMUR-2-FUENTETAJA-01   
1 55088U 23001CH  23030.56705575  .00009693  00000+0  53287-3 0  9994
2 55088  97.5062  92.2967 0017419 120.7731 239.5218 15.14163355  4238
SPACEBEE-163            
1 55089U 23001CJ  23030.56565266  .00011530  00000+0  63073-3 0  9993
2 55089  97.4998  92.2769 0016982 119.4495 240.8434 15.14296646  4237
2023-001CK              
1 55090U 23001CK  23030.56728811  .00006932  00000+0  38312-3 0  9990
2 55090  97.5023  92.2839 0017952 122.3133 237.9840 15.14074653  4237
SPACEBEE-164            
1 55091U 23001CL  23030.56488742  .00009679  00000+0  52940-3 0  9991
2 55091  97.4998  92.2776 0017605 119.0731 241.2266 15.14339460  4230
SPACEBEE-166            
1 55092U 23001CM  23030.56304508  .00010715  00000+0  58279-3 0  9993
2 55092  97.5000  92.2801 0019386 120.3692 239.9460 15.14481786  4233
2023-001CN              
1 55093U 23001CN  23030.56698541  .00002965  00000+0  16645-3 0  9996
2 55093  97.4996  92.2748 0017867 117.8863 242.4181 15.13985536  4230
SPACEBEE-165            
1 55094U 23001CP  23030.62966720  .00010045  00000+0  54795-3 0  9997
2 55094  97.4995  92.3425 0016687 118.2352 242.0567 15.14438086  4249
SPACEBEE-162            
1 55095U 23001CQ  23030.56371390  .00009634  00000+0  52598-3 0  9995
2 55095  97.4997  92.2788 0017749 118.5587 241.7433 15.14405475  4239
SPACEBEE-161            
1 55096U 23001CR  23030.56347099  .00009590  00000+0  52333-3 0  9993
2 55096  97.4997  92.2791 0017802 118.4714 241.8314 15.14421663  4231
SPACEBEE-160            
1 55097U 23001CS  23030.62915265  .00009830  00000+0  53578-3 0  9996
2 55097  97.4997  92.3446 0017951 118.2616 242.0431 15.14454439  4245
BDSAT-2                 
1 55098U 23001CT  23030.56502111  .00007318  00000+0  40254-3 0  9998
2 55098  97.5052  92.2965 0018170 118.6217 241.6845 15.14221207  4237
SPACEBEE-156            
1 55099U 23001CU  23030.62904521  .00009614  00000+0  52405-3 0  9999
2 55099  97.4996  92.3446 0017902 118.2746 242.0295 15.14458041  4247
SPACEBEE-158            
1 55100U 23001CV  23030.56297087  .00010128  00000+0  55178-3 0  9999
2 55100  97.4994  92.2786 0018300 118.8915 241.4156 15.14455744  4236
SPACEBEE-159            
1 55101U 23001CW  23030.62737649  .00010719  00000+0  58088-3 0  9999
2 55101  97.4998  92.3467 0019163 118.0426 242.2747 15.14615180  4243
SPACEBEE-157            
1 55102U 23001CX  23030.56183335  .00010966  00000+0  59539-3 0  9996
2 55102  97.4994  92.2806 0017247 121.0442 239.2486 15.14574889  4234
2023-001CY              
1 55103U 23001CY  23030.56598985  .00003785  00000+0  21123-3 0  9997
2 55103  97.5030  92.2877 0018541 117.3106 243.0016 15.14014351  4233
SHARJAHSAT-1            
1 55104U 23001CZ  23030.80936278  .00005873  00000+0  34522-3 0  9993
2 55104  97.5010  92.4552 0013498 137.9113 314.9394 15.11979298  4263
FUTURA-SM1              
1 55105U 23001DA  23030.56390132  .00005515  00000+0  28118-3 0  9997
2 55105  97.5031  92.2858 0013164 117.1989 243.0587 15.17092244  4231
FUTURA-SM3              
1 55106U 23001DB  23030.57679258  .00106889  00000+0  55391-2 0  9996
2 55106  97.5130  92.2895 0013789 126.3872 233.8634 15.15623395  4223
MARIO                   
1 55123U 98067UQ  23030.01431752  .00068058  00000+0  97724-3 0  9995
2 55123  51.6412 292.2981 0000292 195.0554 165.0429 15.55474020  4972
NUTSAT                  
1 55124U 98067UR  23030.12971085  .00100151  00000+0  13377-2 0  9998
2 55124  51.6402 291.5687 0002176 202.5897 157.5000 15.57255053  4981
LORIS                   
1 55125U 98067US  23030.02249178  .00049791  00000+0  74352-3 0  9992
2 55125  51.6409 292.3531 0000946   8.4930 351.6077 15.54537663  4988
ORCASAT                 
1 55126U 98067UT  23030.15555631  .00042493  00000+0  64686-3 0  9992
2 55126  51.6412 291.7417 0001420   6.4368 353.6640 15.54079498  5009
DANTESAT                
1 55127U 98067UU  23029.95364244  .01028805  47640-3  28839-2 0  9993
2 55127  51.6257 288.8614 0015385 206.4425 153.5799 15.92841552  4982
TJREVERB                
1 55128U 98067UV  23030.02859261  .00049889  00000+0  75483-3 0  9999
2 55128  51.6406 292.3934 0002310 326.2152  33.8691 15.54174802  4971
SPORT                   
1 55129U 98067UW  23030.94540564  .00024621  00000+0  40024-3 0  9994
2 55129  51.6414 288.0147 0001532 319.4490  40.6386 15.52542539  5111
PETITSAT                
1 55130U 98067UX  23030.15535462  .00084691  00000+0  12162-2 0  9994
2 55130  51.6405 291.7399 0002633 235.6696 124.4046 15.55374342  4945
SHIJIAN-23 (SJ-23)      
1 55131U 23002A   23030.79905973 -.00000277  00000+0  00000+0 0  9994
2 55131   0.5360  95.1037 0003869 245.6498 192.4400  0.99573311   323
CZ-7A R/B               
1 55132U 23002B   23030.69062156  .00132991  86454-6  27372-2 0  9997
2 55132  16.5277  89.4753 7158836 196.5588 114.6848  2.48564922   534
2023-003A               
1 55133U 23003A   23030.95095789  .00019468  00000+0  95741-3 0  9991
2 55133  97.2695 120.1904 0007376 179.3312 231.2003 15.18031581  3291
2023-003B               
1 55134U 23003B   23030.84267211  .00008822  00000+0  39558-3 0  9997
2 55134  97.2695 120.1877 0012714 210.0112 214.3869 15.21373090  3272
2023-003C               
1 55135U 23003C   23030.78073625  .00007606  00000+0  34016-3 0  9998
2 55135  97.2727 120.1415 0012558 214.0952 244.5898 15.21507918  3285
2023-003D               
1 55136U 23003D   23030.77772824  .00012672  00000+0  55887-3 0  9993
2 55136  97.2695 120.1374 0012110 217.1997 241.6349 15.21848816  3274
2023-003E               
1 55137U 23003E   23031.04655270  .00000015  00000+0  36336-5 0  9998
2 55137  97.2666 120.3876 0012652 214.7808 271.0616 15.21769288  3311
ONEWEB-0532             
1 55140U 23004A   23030.17523524 -.00001476  00000+0 -15195-3 0  9994
2 55140  86.5110 276.9406 0013042 142.1014 218.1134 14.91106532  3123
ONEWEB-0533             
1 55141U 23004B   23030.97846385  .00003452  00000+0  34351-3 0  9995
2 55141  86.5106 276.5786 0013535 139.8104 220.4127 14.91281165  3243
ONEWEB-0541             
1 55142U 23004C   23030.66667824 -.00650073  00000+0 -95582-1 0  9991
2 55142  86.6190 276.8331 0011868 137.0454 101.6034 14.77969567  3185
ONEWEB-0543             
1 55143U 23004D   23030.98465080  .00002432  00000+0  24409-3 0  9997
2 55143  86.5129 276.5918 0011477 140.2338 219.9732 14.90830200  3249
ONEWEB-0544             
1 55144U 23004E   23030.23362476  .00003102  00000+0  30439-3 0  9996
2 55144  86.5100 276.9051 0015097 149.3209 210.8905 14.91782525  3137
